CCSDS_OMM_VERS = 2.0
CREATION_DATE  = 
ORIGINATOR     = 

OBJECT_NAME    = IDEFIX & ARIANE 42P R/B
OBJECT_ID      = 2002-021B
CENTER_NAME    = EARTH
REF_FRAME      = TEME
TIME_SYSTEM    = UTC
MEAN_ELEMENT_THEORY = SGP/SGP4

EPOCH          = 2026-02-16T10:47:45.878784
MEAN_MOTION    = 14.31010495
ECCENTRICITY   = .0010626
INCLINATION    = 98.5850
RA_OF_ASC_NODE = 346.3129
ARG_OF_PERICENTER = 249.0771
MEAN_ANOMALY   = 110.9275

EPHEMERIS_TYPE = 0
CLASSIFICATION_TYPE = U
NORAD_CAT_ID   = 27422
ELEMENT_SET_NO = 999
REV_AT_EPOCH   = 24098
BSTAR          = .12656E-3
MEAN_MOTION_DOT = .289E-5
MEAN_MOTION_DDOT = 0

CCSDS_OMM_VERS = 2.0
CREATION_DATE  = 
ORIGINATOR     = 

OBJECT_NAME    = AQUA
OBJECT_ID      = 2002-022A
CENTER_NAME    = EARTH
REF_FRAME      = TEME
TIME_SYSTEM    = UTC
MEAN_ELEMENT_THEORY = SGP/SGP4

EPOCH          = 2026-02-16T13:00:25.567776
MEAN_MOTION    = 14.61923372
ECCENTRICITY   = .0001237
INCLINATION    = 98.4136
RA_OF_ASC_NODE = 14.5283
ARG_OF_PERICENTER = 48.0988
MEAN_ANOMALY   = 44.9915

EPHEMERIS_TYPE = 0
CLASSIFICATION_TYPE = U
NORAD_CAT_ID   = 27424
ELEMENT_SET_NO = 999
REV_AT_EPOCH   = 26564
BSTAR          = .23763E-3
MEAN_MOTION_DOT = .114E-4
MEAN_MOTION_DDOT = 0

CCSDS_OMM_VERS = 2.0
CREATION_DATE  = 
ORIGINATOR     = 

OBJECT_NAME    = CZ-4B R/B
OBJECT_ID      = 2002-024C
CENTER_NAME    = EARTH
REF_FRAME      = TEME
TIME_SYSTEM    = UTC
MEAN_ELEMENT_THEORY = SGP/SGP4

EPOCH          = 2026-02-16T03:16:51.089952
MEAN_MOTION    = 14.14543638
ECCENTRICITY   = .00511966
INCLINATION    = 98.8889
RA_OF_ASC_NODE = 100.6469
ARG_OF_PERICENTER = 84.5325
MEAN_ANOMALY   = 293.0455

EPHEMERIS_TYPE = 0
CLASSIFICATION_TYPE = U
NORAD_CAT_ID   = 27432
ELEMENT_SET_NO = 999
REV_AT_EPOCH   = 22619
BSTAR          = .48879342E-4
MEAN_MOTION_DOT = .51E-6
MEAN_MOTION_DDOT = 0

CCSDS_OMM_VERS = 2.0
CREATION_DATE  = 
ORIGINATOR     = 

OBJECT_NAME    = MIDORI II (ADEOS-II)
OBJECT_ID      = 2002-056A
CENTER_NAME    = EARTH
REF_FRAME      = TEME
TIME_SYSTEM    = UTC
MEAN_ELEMENT_THEORY = SGP/SGP4

EPOCH          = 2026-02-16T10:51:03.572352
MEAN_MOTION    = 14.29269042
ECCENTRICITY   = .0002153
INCLINATION    = 98.7733
RA_OF_ASC_NODE = 5.7882
ARG_OF_PERICENTER = 72.2056
MEAN_ANOMALY   = 287.9360

EPHEMERIS_TYPE = 0
CLASSIFICATION_TYPE = U
NORAD_CAT_ID   = 27597
ELEMENT_SET_NO = 999
REV_AT_EPOCH   = 20726
BSTAR          = .14622E-3
MEAN_MOTION_DOT = .327E-5
MEAN_MOTION_DDOT = 0

CCSDS_OMM_VERS = 2.0
CREATION_DATE  = 
ORIGINATOR     = 

OBJECT_NAME    = H-2A R/B
OBJECT_ID      = 2002-056E
CENTER_NAME    = EARTH
REF_FRAME      = TEME
TIME_SYSTEM    = UTC
MEAN_ELEMENT_THEORY = SGP/SGP4

EPOCH          = 2026-02-16T12:02:31.445376
MEAN_MOTION    = 14.33745717
ECCENTRICITY   = .0069239
INCLINATION    = 98.3164
RA_OF_ASC_NODE = 8.6791
ARG_OF_PERICENTER = 224.0756
MEAN_ANOMALY   = 247.4202

EPHEMERIS_TYPE = 0
CLASSIFICATION_TYPE = U
NORAD_CAT_ID   = 27601
ELEMENT_SET_NO = 999
REV_AT_EPOCH   = 21107
BSTAR          = .11846E-3
MEAN_MOTION_DOT = .296E-5
MEAN_MOTION_DDOT = 0

CCSDS_OMM_VERS = 2.0
CREATION_DATE  = 
ORIGINATOR     = 

OBJECT_NAME    = CZ-4B R/B
OBJECT_ID      = 2003-049C
CENTER_NAME    = EARTH
REF_FRAME      = TEME
TIME_SYSTEM    = UTC
MEAN_ELEMENT_THEORY = SGP/SGP4

EPOCH          = 2026-02-16T11:28:17.412384
MEAN_MOTION    = 14.54997255
ECCENTRICITY   = .0047113
INCLINATION    = 98.6856
RA_OF_ASC_NODE = 41.5545
ARG_OF_PERICENTER = 297.2226
MEAN_ANOMALY   = 62.4173

EPHEMERIS_TYPE = 0
CLASSIFICATION_TYPE = U
NORAD_CAT_ID   = 28059
ELEMENT_SET_NO = 999
REV_AT_EPOCH   = 18351
BSTAR          = .12423E-3
MEAN_MOTION_DOT = .491E-5
MEAN_MOTION_DDOT = 0

CCSDS_OMM_VERS = 2.0
CREATION_DATE  = 
ORIGINATOR     = 

OBJECT_NAME    = CZ-2C R/B
OBJECT_ID      = 2004-012C
CENTER_NAME    = EARTH
REF_FRAME      = TEME
TIME_SYSTEM    = UTC
MEAN_ELEMENT_THEORY = SGP/SGP4

EPOCH          = 2026-02-16T03:56:16.828224
MEAN_MOTION    = 15.61992871
ECCENTRICITY   = .00151159
INCLINATION    = 97.7289
RA_OF_ASC_NODE = 110.4566
ARG_OF_PERICENTER = 33.9022
MEAN_ANOMALY   = 326.3198

EPHEMERIS_TYPE = 0
CLASSIFICATION_TYPE = U
NORAD_CAT_ID   = 28222
ELEMENT_SET_NO = 999
REV_AT_EPOCH   = 20091
BSTAR          = .58980777E-3
MEAN_MOTION_DOT = .51823E-3
MEAN_MOTION_DDOT = 0

CCSDS_OMM_VERS = 2.0
CREATION_DATE  = 
ORIGINATOR     = 

OBJECT_NAME    = SL-16 R/B
OBJECT_ID      = 2004-021B
CENTER_NAME    = EARTH
REF_FRAME      = TEME
TIME_SYSTEM    = UTC
MEAN_ELEMENT_THEORY = SGP/SGP4

EPOCH          = 2026-02-16T02:26:38.497344
MEAN_MOTION    = 14.14594152
ECCENTRICITY   = .00031977
INCLINATION    = 70.9989
RA_OF_ASC_NODE = 277.7982
ARG_OF_PERICENTER = 62.0533
MEAN_ANOMALY   = 298.0913

EPHEMERIS_TYPE = 0
CLASSIFICATION_TYPE = U
NORAD_CAT_ID   = 28353
ELEMENT_SET_NO = 999
REV_AT_EPOCH   = 11978
BSTAR          = .20490824E-3
MEAN_MOTION_DOT = .346E-5
MEAN_MOTION_DDOT = 0

CCSDS_OMM_VERS = 2.0
CREATION_DATE  = 
ORIGINATOR     = 

OBJECT_NAME    = CZ-4B R/B
OBJECT_ID      = 2004-035C
CENTER_NAME    = EARTH
REF_FRAME      = TEME
TIME_SYSTEM    = UTC
MEAN_ELEMENT_THEORY = SGP/SGP4

EPOCH          = 2026-02-16T09:01:25.397760
MEAN_MOTION    = 15.28660784
ECCENTRICITY   = .0033592
INCLINATION    = 97.3533
RA_OF_ASC_NODE = 81.8774
ARG_OF_PERICENTER = 46.8356
MEAN_ANOMALY   = 313.5682

EPHEMERIS_TYPE = 0
CLASSIFICATION_TYPE = U
NORAD_CAT_ID   = 28415
ELEMENT_SET_NO = 999
REV_AT_EPOCH   = 17665
BSTAR          = .33269E-3
MEAN_MOTION_DOT = .9356E-4
MEAN_MOTION_DDOT = 0

CCSDS_OMM_VERS = 2.0
CREATION_DATE  = 
ORIGINATOR     = 

OBJECT_NAME    = CZ-2C R/B
OBJECT_ID      = 2004-046B
CENTER_NAME    = EARTH
REF_FRAME      = TEME
TIME_SYSTEM    = UTC
MEAN_ELEMENT_THEORY = SGP/SGP4

EPOCH          = 2026-02-16T09:06:47.935008
MEAN_MOTION    = 14.26984405
ECCENTRICITY   = .0138564
INCLINATION    = 98.1995
RA_OF_ASC_NODE = 323.6877
ARG_OF_PERICENTER = 217.5308
MEAN_ANOMALY   = 141.6139

EPHEMERIS_TYPE = 0
CLASSIFICATION_TYPE = U
NORAD_CAT_ID   = 28480
ELEMENT_SET_NO = 999
REV_AT_EPOCH   = 10546
BSTAR          = .5435E-4
MEAN_MOTION_DOT = .105E-5
MEAN_MOTION_DDOT = 0

CCSDS_OMM_VERS = 2.0
CREATION_DATE  = 
ORIGINATOR     = 

OBJECT_NAME    = ARIANE 5 R/B
OBJECT_ID      = 2004-049H
CENTER_NAME    = EARTH
REF_FRAME      = TEME
TIME_SYSTEM    = UTC
MEAN_ELEMENT_THEORY = SGP/SGP4

EPOCH          = 2026-02-16T11:29:20.905152
MEAN_MOTION    = 14.85223632
ECCENTRICITY   = .0085296
INCLINATION    = 98.2591
RA_OF_ASC_NODE = 215.1471
ARG_OF_PERICENTER = 60.3147
MEAN_ANOMALY   = 300.6524

EPHEMERIS_TYPE = 0
CLASSIFICATION_TYPE = U
NORAD_CAT_ID   = 28499
ELEMENT_SET_NO = 999
REV_AT_EPOCH   = 14264
BSTAR          = .10981E-3
MEAN_MOTION_DOT = .941E-5
MEAN_MOTION_DDOT = 0

CCSDS_OMM_VERS = 2.0
CREATION_DATE  = 
ORIGINATOR     = 

OBJECT_NAME    = CZ-2D R/B
OBJECT_ID      = 2005-024B
CENTER_NAME    = EARTH
REF_FRAME      = TEME
TIME_SYSTEM    = UTC
MEAN_ELEMENT_THEORY = SGP/SGP4

EPOCH          = 2026-02-16T11:10:11.037792
MEAN_MOTION    = 15.58231676
ECCENTRICITY   = .000765
INCLINATION    = 97.3607
RA_OF_ASC_NODE = 61.8653
ARG_OF_PERICENTER = 97.2969
MEAN_ANOMALY   = 262.9156

EPHEMERIS_TYPE = 0
CLASSIFICATION_TYPE = U
NORAD_CAT_ID   = 28738
ELEMENT_SET_NO = 999
REV_AT_EPOCH   = 13647
BSTAR          = .55222E-3
MEAN_MOTION_DOT = .41819E-3
MEAN_MOTION_DDOT = 0

