IDEFIX & ARIANE 42P R/B 
1 27422U 02021B   26047.44983656  .00000289  00000+0  12656-3 0  9997
2 27422  98.5850 346.3129 0010626 249.0771 110.9275 14.31010495240983
AQUA                    
1 27424U 02022A   26047.54196259  .00001140  00000+0  23763-3 0  9994
2 27424  98.4136  14.5283 0001237  48.0988  44.9915 14.61923372265648
CZ-4B R/B               
1 27432U 02024C   26047.13670243  .00000051  00000+0  48879-4 0  9996
2 27432  98.8889 100.6469 0051196  84.5325 293.0455 14.14543638226192
MIDORI II (ADEOS-II)    
1 27597U 02056A   26047.45212468  .00000327  00000+0  14622-3 0  9993
2 27597  98.7733   5.7882 0002153  72.2056 287.9360 14.29269042207263
H-2A R/B                
1 27601U 02056E   26047.50175284  .00000296  00000+0  11846-3 0  9999
2 27601  98.3164   8.6791 0069239 224.0756 247.4202 14.33745717211079
CZ-4B R/B               
1 28059U 03049C   26047.47797931  .00000491  00000+0  12423-3 0  9994
2 28059  98.6856  41.5545 0047113 297.2226  62.4173 14.54997255183510
CZ-2C R/B               
1 28222U 04012C   26047.16408366  .00051823  00000+0  58981-3 0  9998
2 28222  97.7289 110.4566 0015115  33.9022 326.3198 15.61992871200918
SL-16 R/B               
1 28353U 04021B   26047.10183446  .00000346  00000+0  20491-3 0  9995
2 28353  70.9989 277.7982 0003197  62.0533 298.0913 14.14594152119780
CZ-4B R/B               
1 28415U 04035C   26047.37598840  .00009356  00000+0  33269-3 0  9993
2 28415  97.3533  81.8774 0033592  46.8356 313.5682 15.28660784176651
CZ-2C R/B               
1 28480U 04046B   26047.37972147  .00000105  00000+0  54350-4 0  9991
2 28480  98.1995 323.6877 0138564 217.5308 141.6139 14.26984405105468
ARIANE 5 R/B            
1 28499U 04049H   26047.47871418  .00000941  00000+0  10981-3 0  9993
2 28499  98.2591 215.1471 0085296  60.3147 300.6524 14.85223632142643
CZ-2D R/B               
1 28738U 05024B   26047.46540553  .00041819  00000+0  55222-3 0  9991
2 28738  97.3607  61.8653 0007650  97.2969 262.9156 15.58231676136477
